{
"type": "FeatureCollection",
"name": "forests",
"crs": { "type": "name", "properties": { "name": "urn:ogc:def:crs:OGC:1.3:CRS84" } },
"features": [
{ "type": "Feature", "properties": { "fid": 1, "name": "Amerongse Bos" }, "geometry": { "type": "Polygon", "coordinates": [ [ [ 5.317204931034944, 52.17668458203616 ], [ 5.24483058827171, 52.240005434933032 ], [ 5.148374090258618, 52.128290031900811 ], [ 5.333893206661212, 52.015690285893093 ], [ 5.584348410352106, 51.967361882486856 ], [ 5.317204931034944, 52.17668458203616 ] ] ] } },
{ "type": "Feature", "properties": { "fid": 2, "name": "Speulderbos" }, "geometry": { "type": "Polygon", "coordinates": [ [ [ 5.528057014957606, 52.195033224339802 ], [ 5.532195220358604, 52.198831368591321 ], [ 5.552925160025145, 52.225426121607612 ], [ 5.623004246839776, 52.205023380746539 ], [ 5.548589630469823, 52.168384702331252 ], [ 5.528057014957606, 52.195033224339802 ] ] ] } },
{ "type": "Feature", "properties": { "fid": 3, "name": "Hoge Veluwe" }, "geometry": { "type": "Polygon", "coordinates": [ [ [ 6.03045103546529, 52.040232443457526 ], [ 5.964155403411945, 52.41722801580849 ], [ 5.53904878595737, 52.272269899347727 ], [ 6.03045103546529, 52.040232443457526 ] ] ] } },
{ "type": "Feature", "properties": { "fid": 4, "name": "Soesterduinen" }, "geometry": { "type": "Polygon", "coordinates": [ [ [ 5.400017158370424, 52.157005139610646 ], [ 5.382180912777993, 52.156091557521599 ], [ 5.397040746155477, 52.140549879308537 ], [ 5.414867666408917, 52.135976025519916 ], [ 5.400017158370424, 52.157005139610646 ] ] ] } }
]
}
